M2 PATHFINDER           
1 45727U 20037E   20175.64601892 -.00000049  00000-0  58468-6 0  9999
2 45727  97.7004 355.6492 0011522 279.4352  80.5598 14.91196805  1551
